start=new Date('2023-05-02T00:00:00.000Z').valueOf();
sats=[{"CLASSIFICATION_TYPE":"U","GP_ID":"231016560","ECCENTRICITY":"0.00015740","CENTER_NAME":"EARTH","OBJECT_TYPE":"PAYLOAD","MEAN_ANOMALY":"259.8146","NORAD_CAT_ID":"46072","PERIAPSIS":"546.073","APOAPSIS":"548.253","EPOCH":"2023-05-01T10:07:34.053888","EPHEMERIS_TYPE":"0","FILE":"3898258","MEAN_MOTION_DOT":"0.00004809","SEMIMAJOR_AXIS":"6925.298","OBJECT_ID":"2020-055AX","INCLINATION":"53.0535","TLE_LINE1":"1 46072U 20055AX  23121.42192192  .00004809  00000-0  34140-3 0  9996","RA_OF_ASC_NODE":"100.0248","PERIOD":"95.591","MEAN_ELEMENT_THEORY":"SGP4","OBJECT_NAME":"STARLINK-1539","ELEMENT_SET_NO":"999","TLE_LINE2":"2 46072  53.0535 100.0248 0001574 100.3021 259.8146 15.06416350152050","LAUNCH_DATE":"2020-08-07","SITE":"AFETR","TIME_SYSTEM":"UTC","REV_AT_EPOCH":"15205","DECAY_DATE":null,"RCS_SIZE":"LARGE","ARG_OF_PERICENTER":"100.3021","BSTAR":"0.00034140000000","REF_FRAME":"TEME","MEAN_MOTION":"15.06416350","COUNTRY_CODE":"US","MEAN_MOTION_DDOT":"0.0000000000000"},{"PERIAPSIS":"546.187","MEAN_ANOMALY":"275.1266","OBJECT_TYPE":"PAYLOAD","NORAD_CAT_ID":"46073","EPOCH":"2023-05-01T05:43:32.786688","APOAPSIS":"548.176","CLASSIFICATION_TYPE":"U","CENTER_NAME":"EARTH","ECCENTRICITY":"0.00014360","GP_ID":"231016810","TLE_LINE1":"1 46073U 20055AY  23121.23857392  .00009880  00000-0  68103-3 0  9996","PERIOD":"95.591","RA_OF_ASC_NODE":"100.8522","EPHEMERIS_TYPE":"0","INCLINATION":"53.0543","OBJECT_ID":"2020-055AY","FILE":"3898258","SEMIMAJOR_AXIS":"6925.317","MEAN_MOTION_DOT":"0.00009880","TLE_LINE2":"2 46073  53.0543 100.8522 0001436  84.9887 275.1266 15.06410368152032","ELEMENT_SET_NO":"999","TIME_SYSTEM":"UTC","SITE":"AFETR","LAUNCH_DATE":"2020-08-07","OBJECT_NAME":"STARLINK-1542","MEAN_ELEMENT_THEORY":"SGP4","MEAN_MOTION":"15.06410368","REF_FRAME":"TEME","MEAN_MOTION_DDOT":"0.0000000000000","COUNTRY_CODE":"US","REV_AT_EPOCH":"15203","RCS_SIZE":"LARGE","DECAY_DATE":null,"BSTAR":"0.00068103000000","ARG_OF_PERICENTER":"84.9887"},{"MEAN_ELEMENT_THEORY":"SGP4","OBJECT_NAME":"STARLINK-1549","TLE_LINE2":"2 46074  53.0534 100.0235 0001510  83.7142 276.4019 15.06420422152054","ELEMENT_SET_NO":"999","TIME_SYSTEM":"UTC","LAUNCH_DATE":"2020-08-07","SITE":"AFETR","REV_AT_EPOCH":"15205","DECAY_DATE":null,"RCS_SIZE":"LARGE","ARG_OF_PERICENTER":"83.7142","BSTAR":"0.00068959000000","REF_FRAME":"TEME","MEAN_MOTION":"15.06420422","MEAN_MOTION_DDOT":"0.0000000000000","COUNTRY_CODE":"US","CLASSIFICATION_TYPE":"U","CENTER_NAME":"EARTH","GP_ID":"231018060","ECCENTRICITY":"0.00015100","NORAD_CAT_ID":"46074","OBJECT_TYPE":"PAYLOAD","MEAN_ANOMALY":"276.4019","PERIAPSIS":"546.105","EPOCH":"2023-05-01T10:08:55.637088","APOAPSIS":"548.197","EPHEMERIS_TYPE":"0","INCLINATION":"53.0534","FILE":"3898258","SEMIMAJOR_AXIS":"6925.286","MEAN_MOTION_DOT":"0.00010010","OBJECT_ID":"2020-055AZ","TLE_LINE1":"1 46074U 20055AZ  23121.42286617  .00010010  00000-0  68959-3 0  9990","PERIOD":"95.591","RA_OF_ASC_NODE":"100.0235"},{"REF_FRAME":"TEME","MEAN_MOTION":"15.06414770","COUNTRY_CODE":"US","MEAN_MOTION_DDOT":"0.0000000000000","REV_AT_EPOCH":"15206","DECAY_DATE":null,"BSTAR":"0.00079040000000","RCS_SIZE":"LARGE","ARG_OF_PERICENTER":"101.4088","ELEMENT_SET_NO":"999","TLE_LINE2":"2 46075  53.0523  99.9061 0001454 101.4088 258.7064 15.06414770152063","LAUNCH_DATE":"2020-08-07","SITE":"AFETR","TIME_SYSTEM":"UTC","MEAN_ELEMENT_THEORY":"SGP4","OBJECT_NAME":"STARLINK-1551","TLE_LINE1":"1 46075U 20055BA  23121.44866593  .00011516  00000-0  79040-3 0  9995","RA_OF_ASC_NODE":"99.9061","PERIOD":"95.591","EPHEMERIS_TYPE":"0","FILE":"3898258","SEMIMAJOR_AXIS":"6925.303","MEAN_MOTION_DOT":"0.00011516","OBJECT_ID":"2020-055BA","INCLINATION":"53.0523","NORAD_CAT_ID":"46075","OBJECT_TYPE":"PAYLOAD","MEAN_ANOMALY":"258.7064","PERIAPSIS":"546.161","APOAPSIS":"548.175","EPOCH":"2023-05-01T10:46:04.736352","CLASSIFICATION_TYPE":"U","GP_ID":"231017811","ECCENTRICITY":"0.00014540","CENTER_NAME":"EARTH"},{"CLASSIFICATION_TYPE":"U","GP_ID":"231050121","ECCENTRICITY":"0.00020210","CENTER_NAME":"EARTH","NORAD_CAT_ID":"46076","OBJECT_TYPE":"PAYLOAD","MEAN_ANOMALY":"246.7490","PERIAPSIS":"545.846","APOAPSIS":"548.646","EPOCH":"2023-05-01T22:32:01.600224","EPHEMERIS_TYPE":"0","FILE":"3898518","SEMIMAJOR_AXIS":"6925.381","MEAN_MOTION_DOT":"0.00003348","OBJECT_ID":"2020-055BB","INCLINATION":"53.0548","TLE_LINE1":"1 46076U 20055BB  23121.93890741  .00003348  00000-0  24366-3 0  9997","RA_OF_ASC_NODE":"97.7001","PERIOD":"95.593","MEAN_ELEMENT_THEORY":"SGP4","OBJECT_NAME":"STARLINK-1552","ELEMENT_SET_NO":"999","TLE_LINE2":"2 46076  53.0548  97.7001 0002021 113.3712 246.7490 15.06389449152129","SITE":"AFETR","LAUNCH_DATE":"2020-08-07","TIME_SYSTEM":"UTC","REV_AT_EPOCH":"15212","BSTAR":"0.00024366000000","DECAY_DATE":null,"RCS_SIZE":"LARGE","ARG_OF_PERICENTER":"113.3712","REF_FRAME":"TEME","MEAN_MOTION":"15.06389449","COUNTRY_CODE":"US","MEAN_MOTION_DDOT":"0.0000000000000"},{"MEAN_MOTION":"15.06410643","REF_FRAME":"TEME","MEAN_MOTION_DDOT":"0.0000000000000","COUNTRY_CODE":"US","REV_AT_EPOCH":"15202","ARG_OF_PERICENTER":"91.0610","DECAY_DATE":null,"RCS_SIZE":"LARGE","BSTAR":"0.00073491000000","TLE_LINE2":"2 46077  53.0527  99.8712 0001522  91.0610 269.0553 15.06410643152021","ELEMENT_SET_NO":"999","TIME_SYSTEM":"UTC","SITE":"AFETR","LAUNCH_DATE":"2020-08-07","OBJECT_NAME":"STARLINK-1559","MEAN_ELEMENT_THEORY":"SGP4","TLE_LINE1":"1 46077U 20055BC  23121.45604310  .00010685  00000-0  73491-3 0  9995","PERIOD":"95.591","RA_OF_ASC_NODE":"99.8712","EPHEMERIS_TYPE":"0","INCLINATION":"53.0527","FILE":"3898258","SEMIMAJOR_AXIS":"6925.316","MEAN_MOTION_DOT":"0.00010685","OBJECT_ID":"2020-055BC","PERIAPSIS":"546.127","NORAD_CAT_ID":"46077","OBJECT_TYPE":"PAYLOAD","MEAN_ANOMALY":"269.0553","EPOCH":"2023-05-01T10:56:42.123840","APOAPSIS":"548.235","CLASSIFICATION_TYPE":"U","CENTER_NAME":"EARTH","ECCENTRICITY":"0.00015220","GP_ID":"231017311"},{"GP_ID":"231017562","ECCENTRICITY":"0.00013750","CENTER_NAME":"EARTH","CLASSIFICATION_TYPE":"U","APOAPSIS":"548.106","EPOCH":"2023-05-01T10:24:51.072480","OBJECT_TYPE":"PAYLOAD","NORAD_CAT_ID":"46078","MEAN_ANOMALY":"262.8013","PERIAPSIS":"546.201","FILE":"3898258","OBJECT_ID":"2020-055BD","SEMIMAJOR_AXIS":"6925.288","MEAN_MOTION_DOT":"0.00009715","INCLINATION":"53.0533","EPHEMERIS_TYPE":"0","RA_OF_ASC_NODE":"99.9735","PERIOD":"95.591","TLE_LINE1":"1 46078U 20055BD  23121.43392445  .00009715  00000-0  66986-3 0  9990","MEAN_ELEMENT_THEORY":"SGP4","OBJECT_NAME":"STARLINK-1563","SITE":"AFETR","LAUNCH_DATE":"2020-08-07","TIME_SYSTEM":"UTC","ELEMENT_SET_NO":"999","TLE_LINE2":"2 46078  53.0533  99.9735 0001375  97.3133 262.8013 15.06419620152037","DECAY_DATE":null,"RCS_SIZE":"LARGE","ARG_OF_PERICENTER":"97.3133","BSTAR":"0.00066986000000","REV_AT_EPOCH":"15203","COUNTRY_CODE":"US","MEAN_MOTION_DDOT":"0.0000000000000","REF_FRAME":"TEME","MEAN_MOTION":"15.06419620"},{"TIME_SYSTEM":"UTC","LAUNCH_DATE":"2020-08-07","SITE":"AFETR","TLE_LINE2":"2 46079  53.0530 100.3024 0001241  90.5212 269.5919 15.06411128152054","ELEMENT_SET_NO":"999","MEAN_ELEMENT_THEORY":"SGP4","OBJECT_NAME":"STARLINK-1566","MEAN_MOTION_DDOT":"0.0000000000000","COUNTRY_CODE":"US","REF_FRAME":"TEME","MEAN_MOTION":"15.06411128","RCS_SIZE":"LARGE","DECAY_DATE":null,"BSTAR":"0.00061399000000","ARG_OF_PERICENTER":"90.5212","REV_AT_EPOCH":"15205","EPOCH":"2023-05-01T08:38:41.704224","APOAPSIS":"548.039","OBJECT_TYPE":"PAYLOAD","NORAD_CAT_ID":"46079","MEAN_ANOMALY":"269.5919","PERIAPSIS":"546.320","CENTER_NAME":"EARTH","GP_ID":"231018311","ECCENTRICITY":"0.00012410","CLASSIFICATION_TYPE":"U","PERIOD":"95.591","RA_OF_ASC_NODE":"100.3024","TLE_LINE1":"1 46079U 20055BE  23121.36020491  .00008878  00000-0  61399-3 0  9994","INCLINATION":"53.0530","FILE":"3898258","OBJECT_ID":"2020-055BE","SEMIMAJOR_AXIS":"6925.314","MEAN_MOTION_DOT":"0.00008878","EPHEMERIS_TYPE":"0"},{"PERIOD":"95.592","RA_OF_ASC_NODE":"100.7780","TLE_LINE1":"1 46080U 20055BF  23121.25237193  .00011382  00000-0  78162-3 0  9993","INCLINATION":"53.0522","FILE":"3898258","MEAN_MOTION_DOT":"0.00011382","SEMIMAJOR_AXIS":"6925.326","OBJECT_ID":"2020-055BF","EPHEMERIS_TYPE":"0","EPOCH":"2023-05-01T06:03:24.934752","APOAPSIS":"548.217","PERIAPSIS":"546.165","OBJECT_TYPE":"PAYLOAD","NORAD_CAT_ID":"46080","MEAN_ANOMALY":"262.6141","CENTER_NAME":"EARTH","ECCENTRICITY":"0.00014820","GP_ID":"231016561","CLASSIFICATION_TYPE":"U","MEAN_MOTION_DDOT":"0.0000000000000","COUNTRY_CODE":"US","MEAN_MOTION":"15.06407385","REF_FRAME":"TEME","DECAY_DATE":null,"RCS_SIZE":"LARGE","BSTAR":"0.00078162000000","ARG_OF_PERICENTER":"97.5017","REV_AT_EPOCH":"15201","TIME_SYSTEM":"UTC","SITE":"AFETR","LAUNCH_DATE":"2020-08-07","TLE_LINE2":"2 46080  53.0522 100.7780 0001482  97.5017 262.6141 15.06407385152014","ELEMENT_SET_NO":"999","OBJECT_NAME":"STARLINK-1568","MEAN_ELEMENT_THEORY":"SGP4"},{"BSTAR":"0.00077583000000","DECAY_DATE":null,"RCS_SIZE":"LARGE","ARG_OF_PERICENTER":"78.4940","REV_AT_EPOCH":"15205","MEAN_MOTION_DDOT":"0.0000000000000","COUNTRY_CODE":"US","MEAN_MOTION":"15.06422318","REF_FRAME":"TEME","OBJECT_NAME":"STARLINK-1571","MEAN_ELEMENT_THEORY":"SGP4","TIME_SYSTEM":"UTC","LAUNCH_DATE":"2020-08-07","SITE":"AFETR","TLE_LINE2":"2 46081  53.0558 100.0393 0001719  78.4940 281.6242 15.06422318152053","ELEMENT_SET_NO":"999","INCLINATION":"53.0558","MEAN_MOTION_DOT":"0.00011300","FILE":"3898258","SEMIMAJOR_AXIS":"6925.280","OBJECT_ID":"2020-055BG","EPHEMERIS_TYPE":"0","PERIOD":"95.591","RA_OF_ASC_NODE":"100.0393","TLE_LINE1":"1 46081U 20055BG  23121.41918236  .00011300  00000-0  77583-3 0  9992","CENTER_NAME":"EARTH","ECCENTRICITY":"0.00017190","GP_ID":"231016811","CLASSIFICATION_TYPE":"U","EPOCH":"2023-05-01T10:03:37.355904","APOAPSIS":"548.336","PERIAPSIS":"545.955","NORAD_CAT_ID":"46081","OBJECT_TYPE":"PAYLOAD","MEAN_ANOMALY":"281.6242"}];
